[{"OBJECT_NAME":"STARLINK-36808","OBJECT_ID":"2026-035C","EPOCH":"2026-03-04T12:00:00.999648","MEAN_MOTION":15.98751372,"ECCENTRICITY":0.00014885,"INCLINATION":97.2774,"RA_OF_ASC_NODE":355.4307,"ARG_OF_PERICENTER":118.6639,"MEAN_ANOMALY":199.5312,"EPHEMERIS_TYPE":0,"CLASSIFICATION_TYPE":"U","NORAD_CAT_ID":67881,"ELEMENT_SET_NO":999,"REV_AT_EPOCH":292,"BSTAR":-0.0021898096,"MEAN_MOTION_DOT":-0.01031118,"MEAN_MOTION_DDOT":0.00034212556},{"OBJECT_NAME":"STARLINK-36817","OBJECT_ID":"2026-035D","EPOCH":"2026-03-04T12:00:00.999648","MEAN_MOTION":15.99010819,"ECCENTRICITY":0.00010998,"INCLINATION":97.2766,"RA_OF_ASC_NODE":355.4353,"ARG_OF_PERICENTER":102.5074,"MEAN_ANOMALY":227.4217,"EPHEMERIS_TYPE":0,"CLASSIFICATION_TYPE":"U","NORAD_CAT_ID":67882,"ELEMENT_SET_NO":999,"REV_AT_EPOCH":292,"BSTAR":-0.0021912271,"MEAN_MOTION_DOT":-0.01046628,"MEAN_MOTION_DDOT":0.00035273508},{"OBJECT_NAME":"STARLINK-36856","OBJECT_ID":"2026-035E","EPOCH":"2026-03-04T12:00:00.999648","MEAN_MOTION":15.98929967,"ECCENTRICITY":0.00010259,"INCLINATION":97.2771,"RA_OF_ASC_NODE":355.434,"ARG_OF_PERICENTER":103.1346,"MEAN_ANOMALY":223.1773,"EPHEMERIS_TYPE":0,"CLASSIFICATION_TYPE":"U","NORAD_CAT_ID":67883,"ELEMENT_SET_NO":999,"REV_AT_EPOCH":292,"BSTAR":-0.0021624169,"MEAN_MOTION_DOT":-0.01028359,"MEAN_MOTION_DDOT":0.00034110785},{"OBJECT_NAME":"STARLINK-36842","OBJECT_ID":"2026-035F","EPOCH":"2026-03-04T12:00:00.999648","MEAN_MOTION":15.99155165,"ECCENTRICITY":0.00011149,"INCLINATION":97.2766,"RA_OF_ASC_NODE":355.4369,"ARG_OF_PERICENTER":111.7729,"MEAN_ANOMALY":221.5432,"EPHEMERIS_TYPE":0,"CLASSIFICATION_TYPE":"U","NORAD_CAT_ID":67884,"ELEMENT_SET_NO":999,"REV_AT_EPOCH":292,"BSTAR":-0.0024692908,"MEAN_MOTION_DOT":-0.01187644,"MEAN_MOTION_DDOT":0.00044641546},{"OBJECT_NAME":"STARLINK-36826","OBJECT_ID":"2026-035G","EPOCH":"2026-03-04T12:00:00.999648","MEAN_MOTION":15.99169912,"ECCENTRICITY":0.00010754,"INCLINATION":97.2765,"RA_OF_ASC_NODE":355.438,"ARG_OF_PERICENTER":103.3304,"MEAN_ANOMALY":232.651,"EPHEMERIS_TYPE":0,"CLASSIFICATION_TYPE":"U","NORAD_CAT_ID":67885,"ELEMENT_SET_NO":999,"REV_AT_EPOCH":292,"BSTAR":-0.0021779113,"MEAN_MOTION_DOT":-0.01049531,"MEAN_MOTION_DDOT":0.00035517451},{"OBJECT_NAME":"STARLINK-36390","OBJECT_ID":"2026-035H","EPOCH":"2026-03-04T13:35:07.921824","MEAN_MOTION":15.99375334,"ECCENTRICITY":8.713e-5,"INCLINATION":97.2758,"RA_OF_ASC_NODE":355.5108,"ARG_OF_PERICENTER":112.5891,"MEAN_ANOMALY":247.548,"EPHEMERIS_TYPE":0,"CLASSIFICATION_TYPE":"U","NORAD_CAT_ID":67886,"ELEMENT_SET_NO":999,"REV_AT_EPOCH":302,"BSTAR":-0.00066413715,"MEAN_MOTION_DOT":-0.00325589,"MEAN_MOTION_DDOT":4.0303648e-5},{"OBJECT_NAME":"STARLINK-36368","OBJECT_ID":"2026-035J","EPOCH":"2026-03-04T13:34:08.986656","MEAN_MOTION":15.99523467,"ECCENTRICITY":0.00012079,"INCLINATION":97.2759,"RA_OF_ASC_NODE":355.5116,"ARG_OF_PERICENTER":127.0754,"MEAN_ANOMALY":233.0635,"EPHEMERIS_TYPE":0,"CLASSIFICATION_TYPE":"U","NORAD_CAT_ID":67887,"ELEMENT_SET_NO":999,"REV_AT_EPOCH":302,"BSTAR":-0.00044584985,"MEAN_MOTION_DOT":-0.00220707,"MEAN_MOTION_DDOT":2.0074794e-5},{"OBJECT_NAME":"STARLINK-36801","OBJECT_ID":"2026-035K","EPOCH":"2026-03-04T13:33:11.871936","MEAN_MOTION":15.99766048,"ECCENTRICITY":0.00016675,"INCLINATION":97.2754,"RA_OF_ASC_NODE":355.5126,"ARG_OF_PERICENTER":199.141,"MEAN_ANOMALY":160.9806,"EPHEMERIS_TYPE":0,"CLASSIFICATION_TYPE":"U","NORAD_CAT_ID":67888,"ELEMENT_SET_NO":999,"REV_AT_EPOCH":302,"BSTAR":0.00032952053,"MEAN_MOTION_DOT":0.00164154,"MEAN_MOTION_DDOT":1.3111381e-5},{"OBJECT_NAME":"STARLINK-36372","OBJECT_ID":"2026-035L","EPOCH":"2026-03-04T13:31:23.673216","MEAN_MOTION":15.99926499,"ECCENTRICITY":0.00014919,"INCLINATION":97.2749,"RA_OF_ASC_NODE":355.5139,"ARG_OF_PERICENTER":181.2808,"MEAN_ANOMALY":178.8467,"EPHEMERIS_TYPE":0,"CLASSIFICATION_TYPE":"U","NORAD_CAT_ID":67889,"ELEMENT_SET_NO":999,"REV_AT_EPOCH":302,"BSTAR":0.00025259482,"MEAN_MOTION_DOT":0.00126822,"MEAN_MOTION_DDOT":8.711206e-6},{"OBJECT_NAME":"STARLINK-36363","OBJECT_ID":"2026-035M","EPOCH":"2026-03-04T13:32:08.251296","MEAN_MOTION":15.9999887,"ECCENTRICITY":0.0001735,"INCLINATION":97.2751,"RA_OF_ASC_NODE":355.5133,"ARG_OF_PERICENTER":246.1043,"MEAN_ANOMALY":114.0054,"EPHEMERIS_TYPE":0,"CLASSIFICATION_TYPE":"U","NORAD_CAT_ID":67890,"ELEMENT_SET_NO":999,"REV_AT_EPOCH":302,"BSTAR":0.0011415202,"MEAN_MOTION_DOT":0.00576747,"MEAN_MOTION_DDOT":0.00014921205},{"OBJECT_NAME":"STARLINK-36816","OBJECT_ID":"2026-035N","EPOCH":"2026-03-04T07:17:48.478848","MEAN_MOTION":16.02251198,"ECCENTRICITY":0.0002971,"INCLINATION":97.2743,"RA_OF_ASC_NODE":355.2522,"ARG_OF_PERICENTER":340.2522,"MEAN_ANOMALY":19.8642,"EPHEMERIS_TYPE":0,"CLASSIFICATION_TYPE":"U","NORAD_CAT_ID":67891,"ELEMENT_SET_NO":999,"REV_AT_EPOCH":298,"BSTAR":0.0012363509,"MEAN_MOTION_DOT":0.00710263,"MEAN_MOTION_DDOT":0.0002408317},{"OBJECT_NAME":"STARLINK-36813","OBJECT_ID":"2026-035P","EPOCH":"2026-03-04T13:23:52.418112","MEAN_MOTION":16.00592304,"ECCENTRICITY":1.054e-5,"INCLINATION":97.2742,"RA_OF_ASC_NODE":355.5189,"ARG_OF_PERICENTER":67.2362,"MEAN_ANOMALY":292.8928,"EPHEMERIS_TYPE":0,"CLASSIFICATION_TYPE":"U","NORAD_CAT_ID":67892,"ELEMENT_SET_NO":999,"REV_AT_EPOCH":302,"BSTAR":-0.00010786838,"MEAN_MOTION_DOT":-0.00057271,"MEAN_MOTION_DDOT":3.48478e-6},{"OBJECT_NAME":"STARLINK-36803","OBJECT_ID":"2026-035Q","EPOCH":"2026-03-04T13:30:15.558912","MEAN_MOTION":16.00019842,"ECCENTRICITY":0.00011487,"INCLINATION":97.2751,"RA_OF_ASC_NODE":355.5151,"ARG_OF_PERICENTER":193.573,"MEAN_ANOMALY":166.5518,"EPHEMERIS_TYPE":0,"CLASSIFICATION_TYPE":"U","NORAD_CAT_ID":67893,"ELEMENT_SET_NO":999,"REV_AT_EPOCH":302,"BSTAR":0.00021066079,"MEAN_MOTION_DOT":0.00106211,"MEAN_MOTION_DDOT":6.777378e-6},{"OBJECT_NAME":"STARLINK-36846","OBJECT_ID":"2026-035R","EPOCH":"2026-03-04T13:27:56.848032","MEAN_MOTION":16.00211482,"ECCENTRICITY":9.582e-5,"INCLINATION":97.2751,"RA_OF_ASC_NODE":355.517,"ARG_OF_PERICENTER":198.9075,"MEAN_ANOMALY":161.2168,"EPHEMERIS_TYPE":0,"CLASSIFICATION_TYPE":"U","NORAD_CAT_ID":67894,"ELEMENT_SET_NO":999,"REV_AT_EPOCH":302,"BSTAR":0.00012510084,"MEAN_MOTION_DOT":0.00063479,"MEAN_MOTION_DDOT":3.871522e-6},{"OBJECT_NAME":"STARLINK-36866","OBJECT_ID":"2026-035S","EPOCH":"2026-03-04T13:26:56.969376","MEAN_MOTION":16.0017694,"ECCENTRICITY":0.00012951,"INCLINATION":97.2761,"RA_OF_ASC_NODE":355.5172,"ARG_OF_PERICENTER":24.5233,"MEAN_ANOMALY":335.6107,"EPHEMERIS_TYPE":0,"CLASSIFICATION_TYPE":"U","NORAD_CAT_ID":67895,"ELEMENT_SET_NO":999,"REV_AT_EPOCH":302,"BSTAR":-0.00049445016,"MEAN_MOTION_DOT":-0.00253852,"MEAN_MOTION_DDOT":2.5903718e-5},{"OBJECT_NAME":"STARLINK-36877","OBJECT_ID":"2026-035T","EPOCH":"2026-03-04T13:29:03.388992","MEAN_MOTION":16.00124334,"ECCENTRICITY":9.493e-5,"INCLINATION":97.275,"RA_OF_ASC_NODE":355.5157,"ARG_OF_PERICENTER":194.649,"MEAN_ANOMALY":165.4761,"EPHEMERIS_TYPE":0,"CLASSIFICATION_TYPE":"U","NORAD_CAT_ID":67896,"ELEMENT_SET_NO":999,"REV_AT_EPOCH":302,"BSTAR":0.00020666333,"MEAN_MOTION_DOT":0.00104803,"MEAN_MOTION_DDOT":6.66438e-6}]
