STARLINK-36808          
1 67881U 26035C   26063.50001157 -.01031118  34213-3 -21898-2 0  9995
2 67881  97.2774 355.4307 0001488 118.6639 199.5312 15.98751372  2921
STARLINK-36817          
1 67882U 26035D   26063.50001157 -.01046628  35274-3 -21912-2 0  9993
2 67882  97.2766 355.4353 0001099 102.5074 227.4217 15.99010819  2927
STARLINK-36856          
1 67883U 26035E   26063.50001157 -.01028359  34111-3 -21624-2 0  9994
2 67883  97.2771 355.4340 0001025 103.1346 223.1773 15.98929967  2920
STARLINK-36842          
1 67884U 26035F   26063.50001157 -.01187644  44642-3 -24693-2 0  9997
2 67884  97.2766 355.4369 0001114 111.7729 221.5432 15.99155165  2921
STARLINK-36826          
1 67885U 26035G   26063.50001157 -.01049531  35517-3 -21779-2 0  9993
2 67885  97.2765 355.4380 0001075 103.3304 232.6510 15.99169912  2921
STARLINK-36390          
1 67886U 26035H   26063.56606391 -.00325589  40304-4 -66414-3 0  9997
2 67886  97.2758 355.5108 0000871 112.5891 247.5480 15.99375334  3029
STARLINK-36368          
1 67887U 26035J   26063.56538179 -.00220707  20075-4 -44585-3 0  9990
2 67887  97.2759 355.5116 0001207 127.0754 233.0635 15.99523467  3027
STARLINK-36801          
1 67888U 26035K   26063.56472074  .00164154  13111-4  32952-3 0  9991
2 67888  97.2754 355.5126 0001667 199.1410 160.9806 15.99766048  3025
STARLINK-36372          
1 67889U 26035L   26063.56346844  .00126822  87112-5  25259-3 0  9992
2 67889  97.2749 355.5139 0001491 181.2808 178.8467 15.99926499  3021
STARLINK-36363          
1 67890U 26035M   26063.56398439  .00576747  14921-3  11415-2 0  9990
2 67890  97.2751 355.5133 0001735 246.1043 114.0054 15.99998870  3029
STARLINK-36816          
1 67891U 26035N   26063.30403332  .00710263  24083-3  12364-2 0  9999
2 67891  97.2743 355.2522 0002971 340.2522  19.8642 16.02251198  2980
STARLINK-36813          
1 67892U 26035P   26063.55824558 -.00057271  34848-5 -10787-3 0  9999
2 67892  97.2742 355.5189 0000105  67.2362 292.8928 16.00592304  3028
STARLINK-36803          
1 67893U 26035Q   26063.56268008  .00106211  67774-5  21066-3 0  9996
2 67893  97.2751 355.5151 0001148 193.5730 166.5518 16.00019842  3021
STARLINK-36846          
1 67894U 26035R   26063.56107463  .00063479  38715-5  12510-3 0  9999
2 67894  97.2751 355.5170 0000958 198.9075 161.2168 16.00211482  3029
STARLINK-36866          
1 67895U 26035S   26063.56038159 -.00253852  25904-4 -49445-3 0  9995
2 67895  97.2761 355.5172 0001295  24.5233 335.6107 16.00176940  3027
STARLINK-36877          
1 67896U 26035T   26063.56184478  .00104803  66644-5  20666-3 0  9992
2 67896  97.2750 355.5157 0000949 194.6490 165.4761 16.00124334  3023
